[{"OBJECT_NAME":"STARLINK-3575","OBJECT_ID":"2022-022AC","EPOCH":"2026-03-09T03:15:49.470336","MEAN_MOTION":15.08849319,"ECCENTRICITY":0.00012665,"INCLINATION":53.2188,"RA_OF_ASC_NODE":11.6047,"ARG_OF_PERICENTER":102.3883,"MEAN_ANOMALY":257.7251,"EPHEMERIS_TYPE":0,"CLASSIFICATION_TYPE":"U","NORAD_CAT_ID":51878,"ELEMENT_SET_NO":999,"REV_AT_EPOCH":22303,"BSTAR":0.00016448209,"MEAN_MOTION_DOT":2.331e-5,"MEAN_MOTION_DDOT":0},{"OBJECT_NAME":"CZ-4C R\/B","OBJECT_ID":"2021-026B","EPOCH":"2026-03-09T16:37:41.696544","MEAN_MOTION":15.16445633,"ECCENTRICITY":0.00393855,"INCLINATION":97.7468,"RA_OF_ASC_NODE":117.371,"ARG_OF_PERICENTER":22.5612,"MEAN_ANOMALY":337.7341,"EPHEMERIS_TYPE":0,"CLASSIFICATION_TYPE":"U","NORAD_CAT_ID":48080,"ELEMENT_SET_NO":999,"REV_AT_EPOCH":27175,"BSTAR":0.00026802982,"MEAN_MOTION_DOT":5.244e-5,"MEAN_MOTION_DDOT":0}]
